CUBEBUG-2 (LO-74)       
1 39440U 13066AA  26170.60863938  .00004144  00000+0  38373-3 0  9994
2 39440  97.8909 119.5969 0058232  21.2784 339.0838 14.93780108677351
FUNCUBE-1 (AO-73)       
1 39444U 13066AE  26170.37665816  .00004964  00000+0  30928-3 0  9995
2 39444  97.8280 141.8681 0035834 193.1795 166.8500 15.09511616679998
UWE-3                   
1 39446U 13066AG  26170.48821017  .00003847  00000+0  33187-3 0  9995
2 39446  97.8700 126.5771 0047259 313.4566  46.2728 14.97040725677922
UNISAT-6                
1 40012U 14033C   26170.35202284  .00002126  00000+0  23171-3 0  9997
2 40012  97.7885 323.0255 0046159  62.3770 298.2123 14.88254745646486
DUCHIFAT-1              
1 40021U 14033M   26169.68438844  .00088318  00000+0  89916-3 0  9990
2 40021  98.0447 229.0553 0002814 113.8680 246.2872 15.64848252655988
QB50P1                  
1 40025U 14033R   26170.25905701  .00006785  00000+0  33444-3 0  9993
2 40025  98.0964 181.5504 0008005 207.6997 152.3810 15.18285787653349
LILACSAT-2              
1 40908U 15049K   26170.59415252  .00014195  00000+0  24156-3 0  9999
2 40908  97.4640 207.5275 0005657 233.6644 126.4086 15.51509945596126
FOX-1A (AO-85)          
1 40967U 15058D   26170.56601712  .00001743  00000+0  16501-3 0  9999
2 40967  64.7756 271.5912 0130575  55.6754 305.6634 14.90978359113921
CAS-2T & KS-1Q          
1 41847U 16066G   26170.45696401  .00001352  00000+0  19643-3 0  9990
2 41847  98.3821 246.1674 0342855 122.6153 240.8623 14.44701059505127
RADFXSAT (FOX-1B)       
1 43017U 17073E   26170.58926228  .00006334  00000+0  27795-3 0  9999
2 43017  97.4695  37.7543 0149369 320.8671  38.1830 15.12745467465757
DIWATA-2B               
1 43678U 18084H   26170.57062914  .00001724  00000+0  14199-3 0  9999
2 43678  98.1184   6.8817 0012733 162.5432 197.6231 15.00460714416570
ES'HAIL 2               
1 43700U 18090A   26170.54165546  .00000138  00000+0  00000+0 0  9994
2 43700   0.0127  51.8972 0001759  72.3955   4.2456  1.00272001 27701
FOX-1CLIFF (AO-95)      
1 43770U 18099N   26170.43717993  .00009649  00000+0  36925-3 0  9992
2 43770  97.4377 230.6751 0007736 349.3383  10.7690 15.26751310413563
ITASAT                  
1 43786U 18099AE  26170.59067187  .00004936  00000+0  23817-3 0  9999
2 43786  97.4023 222.0545 0011832 351.8035   8.3004 15.19081555413277
JY1SAT (JO-97)          
1 43803U 18099AX  26170.44456374  .00014753  00000+0  45451-3 0  9999
2 43803  97.4126 233.2867 0004486 251.9162 108.1592 15.33712469413979
UWE-4                   
1 43880U 18111E   26170.54494674  .00028021  00000+0  56997-3 0  9995
2 43880  97.5851  99.0446 0005097 331.4843  28.6126 15.46247682411140
TIANYAN 01              
1 44881U 19093C   26170.60262948  .00000184  00000+0  26834-4 0  9999
2 44881  97.7528 242.7760 0015041  79.6870 280.6041 14.86520599351774
RS-44 & BREEZE-KM R/B   
1 44909U 19096E   26170.50699800  .00000010  00000+0 -97910-5 0  9996
2 44909  82.5220 338.1631 0218257 138.7616 223.0205 12.79748873302644
SALSAT                  
1 46495U 20068K   26170.56565365  .00006150  00000+0  21565-3 0  9994
2 46495  97.8853 173.7751 0007913 298.1437  61.9002 15.29827493315721
XW-3 (CAS-9)            
1 50466U 21131B   26170.62311978  .00000360  00000+0  12467-3 0  9993
2 50466  98.4985 262.9997 0005410  91.3184 268.8625 14.41359302235465
GREENCUBE (IO-117)      
1 53109U 22080E   26170.36320786 -.00000003  00000+0  00000+0 0  9993
2 53109  70.1443 297.4882 0008913 289.1275  70.8419  6.42583239 92208
UMKA 1 (RS40S)          
1 57172U 23091G   26170.59415298  .00004886  00000+0  22400-3 0  9992
2 57172  97.5046 229.2822 0014314 110.2043 250.0733 15.20841039164370
CUBESX-HSE 3 (RS42S)    
1 57178U 23091N   26170.46104723  .00011292  00000+0  37561-3 0  9995
2 57178  97.5086 236.0771 0011983  87.8370 272.4243 15.31262603164774
MONITOR-3 (RS58S)       
1 57180U 23091Q   26170.55605083  .00008359  00000+0  30911-3 0  9995
2 57180  97.5078 234.0197 0013064  93.5503 266.7230 15.27881136164654
MONITOR-4 (RS57S)       
1 57182U 23091S   26170.53497600  .00008828  00000+0  32545-3 0  9995
2 57182  97.5073 233.9698 0013062  93.9516 266.3217 15.27966698164659
MONITOR-2 (RS39S)       
1 57184U 23091U   26170.55255114  .00003756  00000+0  18285-3 0  9991
2 57184  97.5068 228.8204 0012770 103.9924 256.2731 15.18928724164311
SVYATOBOR 1 (RS60S)     
1 57187U 23091X   26170.55008771  .00007077  00000+0  27232-3 0  9991
2 57187  97.5084 234.3804 0010835  87.4908 272.7571 15.26648262164677
VIZARD-METEO (RS38S)    
1 57189U 23091Z   26170.55794004  .00013698  00000+0  39140-3 0  9991
2 57189  97.5087 240.0907 0008118  70.6523 289.5598 15.36088134165053
POLYTECH-UNIVERSE 3 (R*)
1 57191U 23091AB  26170.57943980  .00004212  00000+0  20310-3 0  9996
2 57191  97.5043 228.3515 0016982 119.1976 241.0960 15.19131550164317
UTMN 2 (RS27S)          
1 57203U 23091AP  26170.54270438  .00010330  00000+0  33537-3 0  9991
2 57203  97.5083 237.7966 0009146  76.7848 283.4414 15.32099362164907
